NORAD_CAT_ID,OBJECT_NAME,OBJECT_TYPE,EPOCH,MEAN_MOTION,ECCENTRICITY,INCLINATION,RA_OF_ASC_NODE,ARG_OF_PERICENTER,MEAN_ANOMALY,BSTAR,MEAN_MOTION_DOT,MEAN_MOTION_DDOT,TLE_LINE0,TLE_LINE1,TLE_LINE2,SEMIMAJOR_AXIS,PERIOD,APOGEE,PERIGEE,DECAYED
55303.0,STARLINK-5322,PAYLOAD,2024-06-24 10:30:32,14.98332323,0.0003189,69.9992,175.6956,269.4333,90.646,0.00010772,1.193e-05,0.0,0 STARLINK-5322,1 55303U 23010AL  24176.43787873  .00001193  00000-0  10772-3 0  9993,2 55303  69.9992 175.6956 0003189 269.4333  90.6460 14.98332323 79427,6950.186,96.107,574.267,569.834,0.0
55303.0,STARLINK-5322,PAYLOAD,2024-06-25 04:08:00,14.98342389,0.0003235,69.999,173.8441,269.408,90.6709,0.00014961,1.693e-05,0.0,0 STARLINK-5322,1 55303U 23010AL  24177.17222825  .00001693  00000-0  14961-3 0  9995,2 55303  69.9990 173.8441 0003235 269.4080  90.6709 14.98342389 79233,6950.155,96.106,574.268,569.771,0.0
55303.0,STARLINK-5322,PAYLOAD,2024-06-25 08:56:24,14.9834832,0.0003128,69.9992,173.3393,268.4078,91.6723,0.00022146,2.552e-05,0.0,0 STARLINK-5322,1 55303U 23010AL  24177.37250156  .00002552  00000-0  22146-3 0  9994,2 55303  69.9992 173.3393 0003128 268.4078  91.6723 14.98348320 79567,6950.136,96.106,574.175,569.827,0.0
55303.0,STARLINK-5322,PAYLOAD,2024-06-26 04:10:01,14.9833148,0.0002611,70.0015,171.3233,234.5012,125.5904,2.7756e-05,2.38e-06,0.0,0 STARLINK-5322,1 55303U 23010AL  24178.17363151  .00000238  00000-0  27756-4 0  9995,2 55303  70.0015 171.3233 0002611 234.5012 125.5904 14.98331480 79382,6950.188,96.107,573.868,570.239,0.0
55303.0,STARLINK-5322,PAYLOAD,2024-06-26 08:58:26,14.98325541,0.0003083,69.9997,170.8142,270.0632,90.0174,-3.2946e-05,-4.86e-06,0.0,0 STARLINK-5322,1 55303U 23010AL  24178.37391779 -.00000486  00000-0 -32946-4 0  9998,2 55303  69.9997 170.8142 0003083 270.0632  90.0174 14.98325541 79418,6950.207,96.107,574.214,569.929,0.0
55303.0,STARLINK-5322,PAYLOAD,2024-06-27 09:00:27,14.98328434,0.0002766,70.0001,168.2915,256.6992,103.3859,-0.00018104,-2.252e-05,0.0,0 STARLINK-5322,1 55303U 23010AL  24179.37531965 -.00002252  00000-0 -18104-3 0  9994,2 55303  70.0001 168.2915 0002766 256.6992 103.3859 14.98328434 79560,6950.198,96.107,573.985,570.14,0.0
55303.0,STARLINK-5322,PAYLOAD,2024-06-27 17:01:07,14.98324833,0.0003055,69.9992,167.4478,264.898,95.183,-3.2224e-05,-4.77e-06,0.0,0 STARLINK-5322,1 55303U 23010AL  24179.70911855 -.00000477  00000-0 -32224-4 0  9998,2 55303  69.9992 167.4478 0003055 264.8980  95.1830 14.98324833 79916,6950.209,96.107,574.197,569.951,0.0
55303.0,STARLINK-5322,PAYLOAD,2024-06-28 12:14:44,14.9832963,0.0003026,69.9991,165.4283,266.7554,93.3259,0.00012544,1.404e-05,0.0,0 STARLINK-5322,1 55303U 23010AL  24180.51023487  .00001404  00000-0  12544-3 0  9995,2 55303  69.9991 165.4283 0003026 266.7554  93.3259 14.98329630 79738,6950.194,96.107,574.162,569.956,0.0
55303.0,STARLINK-5322,PAYLOAD,2024-06-28 13:50:52,14.98329634,0.0003033,69.9991,165.26,266.8393,93.2419,0.0001268,1.42e-05,0.0,0 STARLINK-5322,1 55303U 23010AL  24180.57699498  .00001420  00000-0  12680-3 0  9991,2 55303  69.9991 165.2600 0003033 266.8393  93.2419 14.98329634 80046,6950.194,96.107,574.167,569.951,0.0
55303.0,STARLINK-5322,PAYLOAD,2024-06-29 09:04:28,14.98333821,0.0003,69.9993,163.2403,266.826,93.2555,0.00018833,2.155e-05,0.0,0 STARLINK-5322,1 55303U 23010AL  24181.37811293  .00002155  00000-0  18833-3 0  9991,2 55303  69.9993 163.2403 0003000 266.8260  93.2555 14.98333821 80161,6950.181,96.107,574.131,569.961,0.0
55303.0,STARLINK-5322,PAYLOAD,2024-06-30 04:18:06,14.98327773,0.0002944,69.9995,161.2205,267.0124,93.0699,3.0742e-05,2.74e-06,0.0,0 STARLINK-5322,1 55303U 23010AL  24182.17924131  .00000274  00000-0  30742-4 0  9990,2 55303  69.9995 161.2205 0002944 267.0124  93.0699 14.98327773 79983,6950.2,96.107,574.111,570.019,0.0
55303.0,STARLINK-5322,PAYLOAD,2024-06-30 09:06:30,14.98331025,0.000293,69.9996,160.7157,266.9358,93.1466,5.3965e-05,5.51e-06,0.0,0 STARLINK-5322,1 55303U 23010AL  24182.37951859  .00000551  00000-0  53965-4 0  9999,2 55303  69.9996 160.7157 0002930 266.9358  93.1466 14.98331025 80313,6950.19,96.107,574.091,570.018,0.0
55303.0,STARLINK-5322,PAYLOAD,2024-06-30 15:31:02,14.98331413,0.0002938,69.9996,160.0424,266.9037,93.1786,2.5765e-05,2.14e-06,0.0,0 STARLINK-5322,1 55303U 23010AL  24182.64655865  .00000214  00000-0  25765-4 0  9990,2 55303  69.9996 160.0424 0002938 266.9037  93.1786 14.98331413 80355,6950.189,96.107,574.095,570.012,0.0
55303.0,STARLINK-5322,PAYLOAD,2024-07-01 04:20:06,14.98334587,0.0002881,69.9998,158.6961,266.8033,93.2797,9.6891e-06,2.3e-07,0.0,0 STARLINK-5322,1 55303U 23010AL  24183.18063657  .00000023  00000-0  96891-5 0  9999,2 55303  69.9998 158.6961 0002881 266.8033  93.2797 14.98334587 80132,6950.179,96.107,574.046,570.041,0.0
55303.0,STARLINK-5322,PAYLOAD,2024-07-01 07:32:22,14.98336158,0.0002863,69.9998,158.3594,267.4939,92.5892,2.6398e-05,2.22e-06,0.0,0 STARLINK-5322,1 55303U 23010AL  24183.31415475  .00000222  00000-0  26398-4 0  9998,2 55303  69.9998 158.3594 0002863 267.4939  92.5892 14.98336158 80452,6950.174,96.107,574.029,570.049,0.0
55303.0,STARLINK-5322,PAYLOAD,2024-07-01 21:57:35,14.9832942,0.0002864,69.9998,156.8448,268.026,92.0571,6.2195e-05,6.49e-06,0.0,0 STARLINK-5322,1 55303U 23010AL  24183.91499728  .00000649  00000-0  62195-4 0  9995,2 55303  69.9998 156.8448 0002864 268.0260  92.0571 14.98329420 80541,6950.195,96.107,574.05,570.069,0.0
55303.0,STARLINK-5322,PAYLOAD,2024-07-02 04:22:07,14.98330727,0.0002889,69.9998,156.1713,266.7729,93.3099,5.9556e-05,6.18e-06,0.0,0 STARLINK-5322,1 55303U 23010AL  24184.18203646  .00000618  00000-0  59556-4 0  9990,2 55303  69.9998 156.1713 0002889 266.7729  93.3099 14.98330727 80283,6950.191,96.107,574.064,570.048,0.0
55303.0,STARLINK-5322,PAYLOAD,2024-07-02 09:10:32,14.98331796,0.0002888,69.9998,155.6663,266.5442,93.5387,6.8299e-05,7.22e-06,0.0,0 STARLINK-5322,1 55303U 23010AL  24184.38231548  .00000722  00000-0  68299-4 0  9994,2 55303  69.9998 155.6663 0002888 266.5442  93.5387 14.98331796 80616,6950.187,96.107,574.06,570.045,0.0
55303.0,STARLINK-5322,PAYLOAD,2024-07-02 15:35:04,14.98324423,0.0002942,69.9996,154.9929,265.3551,94.7272,0.00011567,1.287e-05,0.0,0 STARLINK-5322,1 55303U 23010AL  24184.64935884  .00001287  00000-0  11567-3 0  9999,2 55303  69.9996 154.9929 0002942 265.3551  94.7272 14.98324423 80659,6950.21,96.107,574.12,570.03,0.0
55303.0,STARLINK-5322,PAYLOAD,2024-07-03 04:24:09,14.98329216,0.0003008,69.9997,153.6461,267.1889,92.8926,-2.5984e-06,-1.24e-06,0.0,0 STARLINK-5322,1 55303U 23010AL  24185.18343828 -.00000124  00000-0 -25984-5 0  9991,2 55303  69.9997 153.6461 0003008 267.1889  92.8926 14.98329216 80431,6950.195,96.107,574.151,569.97,0.0
55303.0,STARLINK-5322,PAYLOAD,2024-07-03 15:37:05,14.98332165,0.0002928,70.0001,152.4676,270.0835,89.9989,-5.9042e-06,-1.63e-06,0.0,0 STARLINK-5322,1 55303U 23010AL  24185.65075603 -.00000163  00000-0 -59042-5 0  9991,2 55303  70.0001 152.4676 0002928 270.0835  89.9989 14.98332165 80803,6950.186,96.107,574.086,570.016,0.0
55303.0,STARLINK-5322,PAYLOAD,2024-07-04 04:26:09,14.98330454,0.0003002,69.9998,151.1213,267.2477,92.8338,1.3306e-05,6.6e-07,0.0,0 STARLINK-5322,1 55303U 23010AL  24186.18483636  .00000066  00000-0  13306-4 0  9991,2 55303  69.9998 151.1213 0003002 267.2477  92.8338 14.98330454 80587,6950.191,96.107,574.143,569.97,0.0
55303.0,STARLINK-5322,PAYLOAD,2024-07-04 07:38:25,14.98333073,0.0002986,69.9999,150.7847,267.4252,92.6565,4.0995e-05,3.96e-06,0.0,0 STARLINK-5322,1 55303U 23010AL  24186.31835378  .00000396  00000-0  40995-4 0  9990,2 55303  69.9999 150.7847 0002986 267.4252  92.6565 14.98333073 80905,6950.183,96.107,574.124,569.973,0.0
55303.0,STARLINK-5322,PAYLOAD,2024-07-04 22:03:38,14.98331323,0.0002919,70.0002,149.2701,268.472,91.6105,4.9367e-05,4.96e-06,0.0,0 STARLINK-5322,1 55303U 23010AL  24186.91919437  .00000496  00000-0  49367-4 0  9998,2 55303  70.0002 149.2701 0002919 268.4720  91.6105 14.98331323 80996,6950.189,96.107,574.083,570.025,0.0
55303.0,STARLINK-5322,PAYLOAD,2024-07-05 04:28:10,14.98332624,0.0002892,70.0003,148.5975,270.3524,89.7303,8.3455e-05,9.03e-06,0.0,0 STARLINK-5322,1 55303U 23010AL  24187.18623256  .00000903  00000-0  83455-4 0  9998,2 55303  70.0003 148.5975 0002892 270.3524  89.7303 14.98332624 80731,6950.185,96.107,574.06,570.04,0.0
55303.0,STARLINK-5322,PAYLOAD,2024-07-05 07:40:26,14.98333832,0.0002871,70.0004,148.2608,270.2845,89.7985,9.5387e-05,1.045e-05,0.0,0 STARLINK-5322,1 55303U 23010AL  24187.31975130  .00001045  00000-0  95387-4 0  9999,2 55303  70.0004 148.2608 0002871 270.2845  89.7985 14.98333832 81058,6950.181,96.107,574.041,570.051,0.0
55303.0,STARLINK-5322,PAYLOAD,2024-07-05 22:05:39,14.98330013,0.0002777,70.0006,146.7461,271.2613,88.8228,1.6772e-05,1.07e-06,0.0,0 STARLINK-5322,1 55303U 23010AL  24187.92059552  .00000107  00000-0  16772-4 0  9996,2 55303  70.0006 146.7461 0002777 271.2613  88.8228 14.98330013 81147,6950.193,96.107,573.988,570.128,0.0
55303.0,STARLINK-5322,PAYLOAD,2024-07-06 04:30:11,14.98328781,0.0002762,70.0007,146.0735,267.1964,92.8879,6.5114e-06,-1.5e-07,0.0,0 STARLINK-5322,1 55303U 23010AL  24188.18763623 -.00000015  00000-0  65114-5 0  9990,2 55303  70.0007 146.0735 0002762 267.1964  92.8879 14.98328781 80888,6950.197,96.107,573.981,570.142,0.0
55303.0,STARLINK-5322,PAYLOAD,2024-07-06 14:07:00,14.98327706,0.0002748,70.0007,145.0633,269.6227,90.4617,-3.1592e-05,-4.7e-06,0.0,0 STARLINK-5322,1 55303U 23010AL  24188.58819796 -.00000470  00000-0 -31592-4 0  9995,2 55303  70.0007 145.0633 0002748 269.6227  90.4617 14.98327706 81248,6950.2,96.107,573.975,570.155,0.0
55303.0,STARLINK-5322,PAYLOAD,2024-07-06 22:07:40,14.98330544,0.0002797,70.0006,144.2215,269.6398,90.444,-1.6092e-05,-2.85e-06,0.0,0 STARLINK-5322,1 55303U 23010AL  24188.92199592 -.00000285  00000-0 -16092-4 0  9990,2 55303  70.0006 144.2215 0002797 269.6398  90.4440 14.98330544 81290,6950.191,96.107,574.0,570.112,0.0
